IRIDIUM 36 [-]          
1 24967U 97056C   24055.60061052  .00000886  00000+0  29472-3 0  9999
2 24967  86.4004  13.9471 0002358  88.9140 271.2327 14.36646365383489
IRIDIUM 39 [-]          
1 25042U 97069D   24055.94206271  .00001086  00000+0  28799-3 0  9993
2 25042  86.3876  55.9982 0020602 100.9099 259.4423 14.47709766379738
IRIDIUM 38 [-]          
1 25043U 97069E   24055.57385199  .00000691  00000+0  22623-3 0  9991
2 25043  86.3903  74.4012 0001001 163.2668 196.8562 14.37105636377197
IRIDIUM 42 [-]          
1 25077U 97077A   24056.12002130  .00000609  00000+0  20563-3 0  9990
2 25077  86.3905  79.7624 0001725 102.4908 257.6481 14.35401091372595
IRIDIUM 44 [-]          
1 25078U 97077B   24055.96397909  .00000726  00000+0  22789-3 0  9995
2 25078  86.3906  63.0220 0003376 120.8270 239.3261 14.39220686374896
IRIDIUM 45 [-]          
1 25104U 97082A   24056.11853515  .00012639  00000+0  76681-3 0  9995
2 25104  86.3708 275.1984 0167251 290.2384  68.0933 14.99370611380148
IRIDIUM 24 [-]          
1 25105U 97082B   24055.91367115  .00000628  00000+0  18926-3 0  9992
2 25105  86.3876 282.8481 0010263 208.5019 151.5620 14.40996713374315
IRIDIUM 51 [-]          
1 25262U 98018A   24055.59386182  .00013109  00000+0  67215-3 0  9998
2 25262  86.3923 285.6008 0151217 239.9254 118.6916 15.06927354374288
